{
  "type": "FeatureCollection",
  "features": [
    {
      "type": "Feature",
      "properties": {
        "norad_id": 39617,
        "name": "ASTRA 5B (EGNOS/PRN 123)",
        "group": "gnss",
        "lat": -0.037100939741059366,
        "lon": -121.92689514257364,
        "alt_km": 35769.55365617456,
        "timestamp": "2025-12-13T08:49:15.928442+00:00",
        "meta_object_name": "ASTRA 5B (EGNOS/PRN 123)",
        "meta_object_id": "2014-011B",
        "meta_epoch": "2025-12-12T23:51:49.857120",
        "meta_mean_motion": 1.00272631,
        "meta_eccentricity": 0.00043443,
        "meta_inclination": 0.0615,
        "meta_ra_of_asc_node": 39.0398,
        "meta_arg_of_pericenter": 227.001,
        "meta_mean_anomaly": 197.3353,
        "meta_ephemeris_type": 0,
        "meta_classification_type": "U",
        "meta_norad_cat_id": 39617,
        "meta_element_set_no": 999,
        "meta_rev_at_epoch": 4280,
        "meta_bstar": 0,
        "meta_mean_motion_dot": 1.5e-06,
        "meta_mean_motion_ddot": 0,
        "tle_line1": "1 39617U 14011B   25346.99432705  .00000150  00000+0  00000+0 0  9996",
        "tle_line2": "2 39617   0.0615  39.0398 0004344 227.0010 197.3353  1.00272631 42806"
      },
      "geometry": {
        "type": "Point",
        "coordinates": [
          -121.92689514257364,
          -0.037100939741059366
        ]
      }
    },
    {
      "type": "Feature",
      "properties": {
        "norad_id": 39620,
        "name": "COSMOS 2492 (754)",
        "group": "gnss",
        "lat": -58.34829187999477,
        "lon": -171.79163484857875,
        "alt_km": 19119.121214750845,
        "timestamp": "2025-12-13T08:49:15.928454+00:00",
        "meta_object_name": "COSMOS 2492 (754)",
        "meta_object_id": "2014-012A",
        "meta_epoch": "2025-12-12T02:29:11.116896",
        "meta_mean_motion": 2.1310296,
        "meta_eccentricity": 0.00141989,
        "meta_inclination": 65.408,
        "meta_ra_of_asc_node": 320.2923,
        "meta_arg_of_pericenter": 311.6032,
        "meta_mean_anomaly": 48.2746,
        "meta_ephemeris_type": 0,
        "meta_classification_type": "U",
        "meta_norad_cat_id": 39620,
        "meta_element_set_no": 999,
        "meta_rev_at_epoch": 9125,
        "meta_bstar": 0,
        "meta_mean_motion_dot": -5.5e-07,
        "meta_mean_motion_ddot": 0,
        "tle_line1": "1 39620U 14012A   25346.10360089 -.00000055  00000+0  00000+0 0  9994",
        "tle_line2": "2 39620  65.4080 320.2923 0014198 311.6032  48.2746  2.13102960 91257"
      },
      "geometry": {
        "type": "Point",
        "coordinates": [
          -171.79163484857875,
          -58.34829187999477
        ]
      }
    },
    {
      "type": "Feature",
      "properties": {
        "norad_id": 39635,
        "name": "IRNSS-1B",
        "group": "gnss",
        "lat": 12.587853836982191,
        "lon": -92.86726879755899,
        "alt_km": 35852.60303433699,
        "timestamp": "2025-12-13T08:49:15.928466+00:00",
        "meta_object_name": "IRNSS-1B",
        "meta_object_id": "2014-017A",
        "meta_epoch": "2025-12-11T18:54:44.030304",
        "meta_mean_motion": 1.00285038,
        "meta_eccentricity": 0.00181492,
        "meta_inclination": 29.2271,
        "meta_ra_of_asc_node": 243.6214,
        "meta_arg_of_pericenter": 227.0185,
        "meta_mean_anomaly": 309.1991,
        "meta_ephemeris_type": 0,
        "meta_classification_type": "U",
        "meta_norad_cat_id": 39635,
        "meta_element_set_no": 999,
        "meta_rev_at_epoch": 4291,
        "meta_bstar": 0,
        "meta_mean_motion_dot": 1.07e-06,
        "meta_mean_motion_ddot": 0,
        "tle_line1": "1 39635U 14017A   25345.78800961  .00000107  00000+0  00000+0 0  9993",
        "tle_line2": "2 39635  29.2271 243.6214 0018149 227.0185 309.1991  1.00285038 42916"
      },
      "geometry": {
        "type": "Point",
        "coordinates": [
          -92.86726879755899,
          12.587853836982191
        ]
      }
    },
    {
      "type": "Feature",
      "properties": {
        "norad_id": 39727,
        "name": "LUCH 5V (SDCM/PRN 141)",
        "group": "gnss",
        "lat": -3.9645411148415373,
        "lon": -50.70332008893672,
        "alt_km": 35770.83997096594,
        "timestamp": "2025-12-13T08:49:15.928478+00:00",
        "meta_object_name": "LUCH 5V (SDCM/PRN 141)",
        "meta_object_id": "2014-023A",
        "meta_epoch": "2025-12-12T20:11:39.007680",
        "meta_mean_motion": 1.00269145,
        "meta_eccentricity": 0.00045906,
        "meta_inclination": 4.67,
        "meta_ra_of_asc_node": 71.5381,
        "meta_arg_of_pericenter": 206.5136,
        "meta_mean_anomaly": 201.3871,
        "meta_ephemeris_type": 0,
        "meta_classification_type": "U",
        "meta_norad_cat_id": 39727,
        "meta_element_set_no": 999,
        "meta_rev_at_epoch": 4249,
        "meta_bstar": 0,
        "meta_mean_motion_dot": -2.57e-06,
        "meta_mean_motion_ddot": 0,
        "tle_line1": "1 39727U 14023A   25346.84142370 -.00000257  00000+0  00000+0 0  9990",
        "tle_line2": "2 39727   4.6700  71.5381 0004590 206.5136 201.3871  1.00269145 42492"
      },
      "geometry": {
        "type": "Point",
        "coordinates": [
          -50.70332008893672,
          -3.9645411148415373
        ]
      }
    },
    {
      "type": "Feature",
      "properties": {
        "norad_id": 39741,
        "name": "GPS BIIF-6  (PRN 06)",
        "group": "gnss",
        "lat": -56.56766509512834,
        "lon": -110.84344012954655,
        "alt_km": 20119.029223675905,
        "timestamp": "2025-12-13T08:49:15.928492+00:00",
        "meta_object_name": "GPS BIIF-6  (PRN 06)",
        "meta_object_id": "2014-026A",
        "meta_epoch": "2025-12-12T23:49:07.978944",
        "meta_mean_motion": 2.00561385,
        "meta_eccentricity": 0.00391904,
        "meta_inclination": 56.5834,
        "meta_ra_of_asc_node": 338.7665,
        "meta_arg_of_pericenter": 318.6983,
        "meta_mean_anomaly": 41.0184,
        "meta_ephemeris_type": 0,
        "meta_classification_type": "U",
        "meta_norad_cat_id": 39741,
        "meta_element_set_no": 999,
        "meta_rev_at_epoch": 8480,
        "meta_bstar": 0,
        "meta_mean_motion_dot": -8.6e-07,
        "meta_mean_motion_ddot": 0,
        "tle_line1": "1 39741U 14026A   25346.99245346 -.00000086  00000+0  00000+0 0  9992",
        "tle_line2": "2 39741  56.5834 338.7665 0039190 318.6983  41.0184  2.00561385 84803"
      },
      "geometry": {
        "type": "Point",
        "coordinates": [
          -110.84344012954655,
          -56.56766509512834
        ]
      }
    },
    {
      "type": "Feature",
      "properties": {
        "norad_id": 40001,
        "name": "COSMOS 2500 (755)",
        "group": "gnss",
        "lat": 53.75308102030036,
        "lon": 101.21610480263388,
        "alt_km": 19127.846837446967,
        "timestamp": "2025-12-13T08:49:15.928504+00:00",
        "meta_object_name": "COSMOS 2500 (755)",
        "meta_object_id": "2014-032A",
        "meta_epoch": "2025-12-09T11:02:48.490944",
        "meta_mean_motion": 2.13105796,
        "meta_eccentricity": 0.000831,
        "meta_inclination": 65.3451,
        "meta_ra_of_asc_node": 320.1442,
        "meta_arg_of_pericenter": 219.1348,
        "meta_mean_anomaly": 140.802,
        "meta_ephemeris_type": 0,
        "meta_classification_type": "U",
        "meta_norad_cat_id": 40001,
        "meta_element_set_no": 999,
        "meta_rev_at_epoch": 8941,
        "meta_bstar": 0,
        "meta_mean_motion_dot": -4.9e-07,
        "meta_mean_motion_ddot": 0,
        "tle_line1": "1 40001U 14032A   25343.46028346 -.00000049  00000+0  00000+0 0  9997",
        "tle_line2": "2 40001  65.3451 320.1442 0008310 219.1348 140.8020  2.13105796 89418"
      },
      "geometry": {
        "type": "Point",
        "coordinates": [
          101.21610480263388,
          53.75308102030036
        ]
      }
    },
    {
      "type": "Feature",
      "properties": {
        "norad_id": 40105,
        "name": "GPS BIIF-7  (PRN 09)",
        "group": "gnss",
        "lat": -23.004535164587843,
        "lon": -66.99699615558471,
        "alt_km": 20181.8797642437,
        "timestamp": "2025-12-13T08:49:15.928515+00:00",
        "meta_object_name": "GPS BIIF-7  (PRN 09)",
        "meta_object_id": "2014-045A",
        "meta_epoch": "2025-12-12T01:59:18.865536",
        "meta_mean_motion": 2.00572516,
        "meta_eccentricity": 0.00326941,
        "meta_inclination": 55.2287,
        "meta_ra_of_asc_node": 95.9251,
        "meta_arg_of_pericenter": 119.8618,
        "meta_mean_anomaly": 240.4523,
        "meta_ephemeris_type": 0,
        "meta_classification_type": "U",
        "meta_norad_cat_id": 40105,
        "meta_element_set_no": 999,
        "meta_rev_at_epoch": 8232,
        "meta_bstar": 0,
        "meta_mean_motion_dot": -9e-08,
        "meta_mean_motion_ddot": 0,
        "tle_line1": "1 40105U 14045A   25346.08285724 -.00000009  00000+0  00000+0 0  9998",
        "tle_line2": "2 40105  55.2287  95.9251 0032694 119.8618 240.4523  2.00572516 82323"
      },
      "geometry": {
        "type": "Point",
        "coordinates": [
          -66.99699615558471,
          -23.004535164587843
        ]
      }
    }
  ]
}